{"type": "FeatureCollection", "features": [{"type": "Feature", "properties": {"shapeName": "Chhagalnaiya", "shapeISO": "", "shapeID": "5055444B26511265806420", "shapeGroup": "BGD", "shapeType": "ADM3"}, "geometry": {"type": "Polygon", "coordinates": [[[91.51168667700006, 23.10853326800003], [91.49965555900008, 23.106270536000068], [91.49750035700004, 23.104568292000067], [91.49141586700006, 23.107311586000037], [91.48766515900007, 23.098306112000046], [91.47273723300003, 23.09757231800006], [91.47194156300009, 23.09555559200004], [91.47523580500007, 23.09387775400006], [91.47308036500004, 23.08880589900008], [91.47431606200007, 23.085522764000075], [91.47322110100004, 23.077422832000025], [91.47463766100003, 23.075572864000037], [91.48261658500007, 23.076447031000043], [91.48368212800005, 23.072420344000022], [91.48083137800006, 23.073370545000046], [91.47618362700007, 23.071217733000026], [91.47056480900005, 23.070858076000036], [91.46561435100006, 23.074301569000056], [91.46387575300008, 23.06754584400005], [91.45689610200003, 23.06826174500003], [91.44892608300006, 23.062923510000076], [91.44426306400004, 23.063320114000078], [91.43874050600004, 23.05551311200003], [91.44131898600006, 23.045836112000075], [91.43585212400006, 23.044000522000033], [91.43594972700004, 23.040262292000023], [91.43096097300008, 23.03856612000004], [91.43261909900008, 23.03381521400007], [91.43485532400007, 23.03436844500004], [91.43465230000004, 23.036506238000072], [91.43700629300008, 23.03424223500008], [91.43821262500006, 23.02975672900004], [91.43923923000006, 23.032359189000033], [91.44118835500007, 23.03017445000006], [91.44118494900005, 23.034728611000048], [91.44389023200006, 23.035167932000036], [91.44777986500009, 23.039651500000048], [91.44870752500003, 23.035543284000028], [91.44583781600005, 23.034614463000025], [91.44886240800008, 23.03291653200006], [91.44949970400006, 23.03086111500005], [91.44779260900003, 23.02600257200004], [91.44426723300006, 23.023100120000038], [91.44289525400006, 23.018129508000072], [91.43878313500005, 23.013347501000055], [91.43921975700005, 23.012141211000028], [91.44483759000008, 23.008289468000044], [91.44580273100007, 23.009650623000027], [91.44368223600009, 23.012144042000045], [91.44423582600007, 23.014081893000025], [91.44640097300004, 23.012743527000055], [91.46382902600004, 23.011973701000045], [91.46927672100009, 23.015846261000036], [91.47463510800009, 23.016805127000055], [91.47724437500005, 23.014725585000065], [91.48410316600007, 23.014931803000025], [91.48657508900004, 23.012355548000073], [91.49131727600007, 23.01251358500008], [91.49246223500006, 23.009889343000054], [91.49138311700005, 22.993204440000056], [91.49623016800007, 22.987890049000043], [91.50061581200004, 22.988081127000044], [91.50189957000003, 22.983706812000037], [91.50687682500006, 22.982943257000045], [91.50903699300005, 22.97154319200007], [91.50148188700007, 22.96207101300007], [91.49885621100003, 22.955902570000035], [91.50523967700008, 22.940576793000048], [91.50050778600007, 22.932940383000073], [91.50616568300006, 22.927872102000038], [91.51287133200003, 22.91067745600003], [91.51154024800007, 22.90866991200005], [91.50881288600004, 22.908167502000026], [91.50006947800006, 22.910402615000066], [91.49303510200008, 22.905252647000054], [91.49787379400004, 22.903332508000062], [91.50116613500006, 22.900983173000043], [91.51166668700006, 22.90160839300006], [91.51385860900007, 22.907071853000048], [91.53155725200008, 22.914031339000076], [91.53321899000008, 22.917559548000042], [91.53076787100008, 22.925341124000056], [91.53790868700008, 22.928908914000033], [91.53888677900005, 22.93209144100007], [91.53403659100007, 22.937728218000075], [91.52513712300004, 22.940246251000076], [91.52479473500006, 22.943303831000037], [91.52748477900008, 22.94730988200007], [91.53052608500008, 22.948121612000023], [91.53631020500006, 22.942246153000042], [91.53886149400006, 22.941931299000032], [91.54513790500005, 22.952203784000062], [91.53977535000007, 22.953751174000047], [91.54292643400004, 22.956699746000027], [91.55273220900006, 22.951503082000045], [91.55921466700005, 22.95361771300003], [91.56592657100003, 22.94705532300003], [91.56665915700006, 22.953829967000047], [91.57706614100005, 22.96074405300004], [91.57676514100007, 22.965434879000043], [91.57498216700009, 22.968787537000026], [91.55717644700007, 22.97860371300004], [91.55694278600004, 22.99674010900003], [91.54745996800006, 22.99436271600007], [91.54245025500006, 22.999653144000035], [91.54813202900004, 23.019393045000072], [91.53834699600009, 23.019355784000027], [91.55028410900007, 23.03854737100005], [91.53043046900007, 23.038437173000034], [91.53620824000006, 23.05465861600004], [91.52490667500007, 23.055497597000056], [91.52576875600005, 23.060130324000056], [91.53525770500005, 23.063480711000068], [91.52504662800004, 23.082965517000048], [91.52988407700008, 23.08588111000006], [91.52975612900008, 23.09181042000006], [91.51887004400004, 23.094284238000057], [91.52228154200003, 23.104141738000067], [91.51124630400005, 23.104343162000077], [91.51168667700006, 23.10853326800003]]]}}, {"type": "Feature", "properties": {"shapeName": "Daganbhuiyan", "shapeISO": "", "shapeID": "5055444B99414305730014", "shapeGroup": "BGD", "shapeType": "ADM3"}, "geometry": {"type": "Polygon", "coordinates": [[[91.28576466400006, 23.054426704000036], [91.28127318500003, 23.05526644500003], [91.28062002800004, 23.05850797200003], [91.27777412000006, 23.06036843000004], [91.27393367200006, 23.058784979000052], [91.27437281300007, 23.055860750000022], [91.27139126700007, 23.053805725000075], [91.27012764500006, 23.05591975300007], [91.26480981000003, 23.053536756000028], [91.25895213200005, 23.054611459000057], [91.25556036900008, 23.039470394000034], [91.25676253500006, 23.037559619000035], [91.26384313300008, 23.034534515000075], [91.26309555800003, 23.031741144000023], [91.25811876800003, 23.031224205000058], [91.26067094900009, 23.030603264000035], [91.26494595500003, 23.021864596000057], [91.26185210900007, 23.013540930000033], [91.25873100600006, 23.011175125000022], [91.26009000900007, 22.995383168000046], [91.25745157100005, 22.98714605400005], [91.25883951900005, 22.98454115100003], [91.25798444600008, 22.973053562000075], [91.25560171100005, 22.970190670000022], [91.25603460700006, 22.963928037000073], [91.25235188200008, 22.960476437000068], [91.26006874900008, 22.958771479000063], [91.26113635000007, 22.952614996000023], [91.25930123800003, 22.94724252000003], [91.26312453800006, 22.94589796400004], [91.25902108800005, 22.92347290600003], [91.26011015000006, 22.90989807400007], [91.25614946200005, 22.908330196000065], [91.25384482300007, 22.903951457000062], [91.24932406300007, 22.906204453000043], [91.24813192100004, 22.904379173000052], [91.25008932300005, 22.902406636000023], [91.24672915300005, 22.90083942700005], [91.24795616200004, 22.899888197000053], [91.24824829200008, 22.89399074100004], [91.25150714600005, 22.891902966000032], [91.25355641000004, 22.894183802000043], [91.25730903700008, 22.88961947100006], [91.25835241800007, 22.890973936000023], [91.25866767400004, 22.887500849000048], [91.26125454800007, 22.885846100000037], [91.26106156700007, 22.88276316200006], [91.26264969400006, 22.88406247300003], [91.26554945600003, 22.881537524000066], [91.26606574800007, 22.886755665000067], [91.26912315700008, 22.891553862000023], [91.27485800200003, 22.89060814800007], [91.27559540600004, 22.89271291700004], [91.27743136400005, 22.89299284200007], [91.27634696000007, 22.899388355000042], [91.28662804900006, 22.896884298000032], [91.29026198300005, 22.894185306000054], [91.29764433300005, 22.895617182000024], [91.29982979100004, 22.894010254000023], [91.30648857100005, 22.899661619000028], [91.30808776300006, 22.90516248800003], [91.31225336500006, 22.904296068000065], [91.31366954200007, 22.900573920000056], [91.32214757400004, 22.902402573000074], [91.32678361000006, 22.90732133000006], [91.32984817600004, 22.906028981000077], [91.33013187500006, 22.90875142300007], [91.32793925900006, 22.910046091000027], [91.32799707600003, 22.91172780200003], [91.33633493100007, 22.925521268000068], [91.33011844600009, 22.928976800000044], [91.33125315100006, 22.932523597000056], [91.33389738200003, 22.935739892000072], [91.34070541700004, 22.93403647200006], [91.34270659600008, 22.937159819000044], [91.34174987200004, 22.939710379000076], [91.34358233200004, 22.93869629200003], [91.34534377100005, 22.939749384000038], [91.34535398000008, 22.93714360900003], [91.35426512400005, 22.93905030600007], [91.35391623200007, 22.94024887200004], [91.35018688300005, 22.940503053000043], [91.35181297500009, 22.943692686000077], [91.34943471900004, 22.944001384000046], [91.35006845400005, 22.94644418300004], [91.34736910800007, 22.94695541300007], [91.34827826300005, 22.948284399000045], [91.35215302400007, 22.94632538700006], [91.35498464500006, 22.948818283000037], [91.35435769500003, 22.95447642000005], [91.35804295300005, 22.962344907000045], [91.35493546700008, 22.967010445000028], [91.35545930200004, 22.970024843000033], [91.35864988600008, 22.970558631000074], [91.36634413100006, 22.965974362000054], [91.36848666000003, 22.967892067000037], [91.36767199500008, 22.971201333000067], [91.36187156200003, 22.97516654100008], [91.36579575300004, 22.980559165000045], [91.36644606400006, 22.986297184000023], [91.36518083000004, 22.988225078000028], [91.36245009500004, 22.988782022000066], [91.35912731800005, 22.997257509000065], [91.34199618000008, 22.997640107000052], [91.34393479800008, 23.002468092000072], [91.34212845600007, 23.004912398000045], [91.32819678600003, 23.00658560100004], [91.32681989800005, 23.008956142000045], [91.32283068600003, 23.009152096000037], [91.32355018200008, 23.010895435000066], [91.33256456600003, 23.016195995000032], [91.33394692300004, 23.01847729600007], [91.33308768700005, 23.020775223000044], [91.33083718000006, 23.020634415000075], [91.32663045300006, 23.01720716400007], [91.31812967100007, 23.020815839000022], [91.31661279700006, 23.013574208000023], [91.30596434900008, 23.01226868400005], [91.30507418700006, 23.014377629000023], [91.30734895200004, 23.017426869000076], [91.31319558700005, 23.018509708000067], [91.31475766900007, 23.020110616000068], [91.31352434600007, 23.02606945200006], [91.31438399100006, 23.028870648000066], [91.32020138500008, 23.030339558000037], [91.32251560100008, 23.032680354000036], [91.31574693900006, 23.038465789000043], [91.31416080700006, 23.043777829000078], [91.31462926400008, 23.04918286000003], [91.30836648100006, 23.049865908000072], [91.29987669500008, 23.048148758000025], [91.29348181000006, 23.052951394000047], [91.28826142500003, 23.051541582000027], [91.28576466400006, 23.054426704000036]]]}}, {"type": "Feature", "properties": {"shapeName": "Feni Sadar", "shapeISO": "", "shapeID": "5055444B40138424940148", "shapeGroup": "BGD", "shapeType": "ADM3"}, "geometry": {"type": "Polygon", "coordinates": [[[91.31462926400008, 23.04918286000003], [91.31416080700006, 23.043777829000078], [91.31574693900006, 23.038465789000043], [91.32251560100008, 23.032680354000036], [91.32020138500008, 23.030339558000037], [91.31438399100006, 23.028870648000066], [91.31352434600007, 23.02606945200006], [91.31475766900007, 23.020110616000068], [91.31319558700005, 23.018509708000067], [91.30734895200004, 23.017426869000076], [91.30507418700006, 23.014377629000023], [91.30596434900008, 23.01226868400005], [91.31661279700006, 23.013574208000023], [91.31812967100007, 23.020815839000022], [91.32663045300006, 23.01720716400007], [91.33083718000006, 23.020634415000075], [91.33308768700005, 23.020775223000044], [91.33394692300004, 23.01847729600007], [91.33256456600003, 23.016195995000032], [91.32355018200008, 23.010895435000066], [91.32283068600003, 23.009152096000037], [91.32681989800005, 23.008956142000045], [91.32819678600003, 23.00658560100004], [91.34212845600007, 23.004912398000045], [91.34393479800008, 23.002468092000072], [91.34199618000008, 22.997640107000052], [91.35912731800005, 22.997257509000065], [91.36245009500004, 22.988782022000066], [91.36518083000004, 22.988225078000028], [91.36644606400006, 22.986297184000023], [91.36579575300004, 22.980559165000045], [91.36187156200003, 22.97516654100008], [91.36767199500008, 22.971201333000067], [91.36848666000003, 22.967892067000037], [91.36634413100006, 22.965974362000054], [91.35864988600008, 22.970558631000074], [91.35545930200004, 22.970024843000033], [91.35493546700008, 22.967010445000028], [91.35804295300005, 22.962344907000045], [91.35435769500003, 22.95447642000005], [91.35498464500006, 22.948818283000037], [91.35867470300008, 22.94338626900003], [91.36454850900003, 22.94236156000005], [91.36609793400004, 22.943100126000047], [91.36444145400009, 22.949981923000053], [91.36706397200004, 22.95250292000003], [91.36706555300003, 22.959574218000057], [91.37159725600009, 22.95705305000007], [91.38115593400005, 22.95647673900004], [91.38272041500005, 22.95495424300003], [91.38251007500008, 22.94877159600003], [91.38421782200004, 22.943367015000035], [91.38680574200004, 22.942650668000056], [91.39246751200005, 22.944282112000053], [91.39406658400009, 22.936224199000037], [91.39057520000006, 22.929619890000026], [91.39566511100008, 22.923608638000076], [91.39482060500006, 22.919335016000048], [91.39821629700003, 22.920959088000075], [91.40112021100003, 22.917005257000028], [91.40622085600006, 22.91980121200004], [91.40443842600007, 22.92299501900004], [91.41071023300003, 22.923573332000046], [91.41091022900008, 22.920347805000063], [91.41542565700007, 22.920806621000054], [91.41626744000007, 22.917837853000037], [91.41627977600007, 22.91984560000003], [91.41741399500006, 22.919626622000067], [91.41661161400003, 22.915833140000075], [91.41901836100004, 22.909313359000066], [91.41939515400009, 22.913782368000057], [91.42270966900008, 22.91438944600003], [91.42541038300004, 22.913228935000063], [91.42640303400003, 22.916316752000057], [91.42871404400006, 22.913962427000058], [91.42868330100004, 22.91841191900005], [91.43218887500007, 22.92402172800007], [91.43685357000004, 22.925790420000055], [91.43485911900007, 22.93430551600005], [91.44008259100008, 22.93844887000006], [91.45035885800007, 22.929425321000053], [91.45564832300005, 22.928772356000025], [91.45597259200008, 22.930545211000037], [91.45394958200006, 22.93285381900006], [91.45754149700008, 22.932106254000075], [91.46156886000006, 22.927758355000037], [91.46302669000005, 22.92323084700007], [91.46648562800004, 22.922500124000067], [91.46488625400008, 22.921503920000077], [91.46543754900006, 22.92023949600008], [91.47001480900008, 22.918342904000042], [91.46733450500005, 22.91576660900006], [91.46862701300006, 22.914868443000046], [91.46783328900005, 22.913534595000044], [91.46972932600005, 22.91373833600005], [91.46846844400005, 22.904277600000057], [91.47472061900004, 22.902487329000053], [91.47358263300004, 22.901770284000065], [91.49787379400004, 22.903332508000062], [91.49303510200008, 22.905252647000054], [91.50006947800006, 22.910402615000066], [91.50881288600004, 22.908167502000026], [91.51154024800007, 22.90866991200005], [91.51287133200003, 22.91067745600003], [91.50616568300006, 22.927872102000038], [91.50050778600007, 22.932940383000073], [91.50523967700008, 22.940576793000048], [91.49885621100003, 22.955902570000035], [91.50148188700007, 22.96207101300007], [91.50903699300005, 22.97154319200007], [91.50687682500006, 22.982943257000045], [91.50189957000003, 22.983706812000037], [91.50061581200004, 22.988081127000044], [91.49623016800007, 22.987890049000043], [91.49138311700005, 22.993204440000056], [91.49246223500006, 23.009889343000054], [91.49131727600007, 23.01251358500008], [91.48657508900004, 23.012355548000073], [91.48410316600007, 23.014931803000025], [91.47724437500005, 23.014725585000065], [91.47463510800009, 23.016805127000055], [91.46927672100009, 23.015846261000036], [91.46382902600004, 23.011973701000045], [91.44640097300004, 23.012743527000055], [91.44423582600007, 23.014081893000025], [91.44368223600009, 23.012144042000045], [91.44580273100007, 23.009650623000027], [91.44483759000008, 23.008289468000044], [91.43921975700005, 23.012141211000028], [91.43878313500005, 23.013347501000055], [91.44289525400006, 23.018129508000072], [91.44426723300006, 23.023100120000038], [91.44779260900003, 23.02600257200004], [91.44949970400006, 23.03086111500005], [91.44886240800008, 23.03291653200006], [91.44583781600005, 23.034614463000025], [91.44870752500003, 23.035543284000028], [91.44777986500009, 23.039651500000048], [91.44389023200006, 23.035167932000036], [91.44118494900005, 23.034728611000048], [91.44118835500007, 23.03017445000006], [91.43923923000006, 23.032359189000033], [91.43821262500006, 23.02975672900004], [91.43700629300008, 23.03424223500008], [91.43465230000004, 23.036506238000072], [91.43485532400007, 23.03436844500004], [91.43261909900008, 23.03381521400007], [91.43096097300008, 23.03856612000004], [91.43594972700004, 23.040262292000023], [91.43585212400006, 23.044000522000033], [91.43002024800006, 23.044089495000037], [91.43282613800005, 23.04647042600004], [91.43335530400003, 23.051054758000078], [91.42326659300005, 23.058670849000066], [91.42233756600007, 23.06302449700007], [91.41657242200006, 23.064093273000026], [91.40626631000003, 23.059125707000078], [91.39918396300004, 23.05857155900003], [91.39867575300008, 23.05664555900006], [91.39581435500008, 23.056204079000054], [91.37189803300004, 23.069394405000025], [91.36866136700007, 23.06732620500003], [91.35157722900004, 23.06779670700007], [91.34917797900005, 23.066828803000078], [91.34281178500004, 23.06852172300006], [91.33341410800006, 23.063852870000062], [91.33076612300005, 23.066293442000074], [91.32688126500005, 23.062247142000047], [91.31632717700006, 23.05699704500006], [91.31462926400008, 23.04918286000003]]]}}, {"type": "Feature", "properties": {"shapeName": "Fulgazi", "shapeISO": "", "shapeID": "5055444B33879349571627", "shapeGroup": "BGD", "shapeType": "ADM3"}, "geometry": {"type": "Polygon", "coordinates": [[[91.51168667700006, 23.10853326800003], [91.51223685900004, 23.113367683000035], [91.52033061800006, 23.114592732000062], [91.51917284100006, 23.11788975500008], [91.51534288000005, 23.117796958000042], [91.51418711900004, 23.122692407000045], [91.51757816000008, 23.125573092000025], [91.50374849000008, 23.127394346000074], [91.50308298200008, 23.130635186000063], [91.51480401700007, 23.138702312000078], [91.51526264000006, 23.14512191800003], [91.50975583800005, 23.14333246700005], [91.50996521900004, 23.140525394000065], [91.50813382700005, 23.13981018000004], [91.50444941500007, 23.140459582000062], [91.50157614300008, 23.143206124000073], [91.49867082300005, 23.142630448000034], [91.49892505500009, 23.143919315000062], [91.49468058100007, 23.14722226600003], [91.50716144900008, 23.15440475400004], [91.49428299300007, 23.152362219000054], [91.49088656900005, 23.157762208000065], [91.48589452500005, 23.153664116000073], [91.48500067600008, 23.147056031000034], [91.48124460400004, 23.14269428800003], [91.48126934900006, 23.139502633000063], [91.48311473900009, 23.13791892100005], [91.48223297000004, 23.135215579000032], [91.47896870500006, 23.135978899000065], [91.47527247800008, 23.13101471400006], [91.46098509800004, 23.129180047000034], [91.46177133300006, 23.13020741100007], [91.46016174400006, 23.132164061000026], [91.46146115800008, 23.13470054900006], [91.45908632500004, 23.13836668700003], [91.45597411900008, 23.140062873000034], [91.45268348900004, 23.13919969500006], [91.45062895500007, 23.140159006000033], [91.45380127100003, 23.143180677000032], [91.45257002400007, 23.14628526300004], [91.44447770900007, 23.14916105700007], [91.44062838600007, 23.153720445000033], [91.44029391400005, 23.156864722000023], [91.44593642200005, 23.162225629000034], [91.44373264300003, 23.165415280000047], [91.44310956000004, 23.17380715200005], [91.44073281400006, 23.175690503000055], [91.43460880800006, 23.172962509000058], [91.41779413800003, 23.172177806000036], [91.41612448900008, 23.169925947000024], [91.40400308300008, 23.16760954600005], [91.40255977000004, 23.16320546000003], [91.40195877000008, 23.170389123000064], [91.40014765900008, 23.172177094000062], [91.40160097100005, 23.175193086000036], [91.40026779800007, 23.177504016000057], [91.40206275800006, 23.181601296000053], [91.40103027100008, 23.182830298000056], [91.39121648800005, 23.181228458000078], [91.38863839400005, 23.17930719800006], [91.39037995600006, 23.176022997000075], [91.38515838600006, 23.175176016000023], [91.38474536500007, 23.156295172000057], [91.38922398900007, 23.152774779000026], [91.39197507300008, 23.13957866100003], [91.39725111000007, 23.13029424800004], [91.39692764200004, 23.11781415300004], [91.40336921600004, 23.11386517300008], [91.40019548000004, 23.09657686500003], [91.40600918100006, 23.097067001000028], [91.40515860600004, 23.08712947300006], [91.40805380700004, 23.08358172000004], [91.41741741700008, 23.08299233200006], [91.41604514500006, 23.07665647500005], [91.41332273100005, 23.075595535000048], [91.41312790600006, 23.06965981700006], [91.41079684000005, 23.066180083000063], [91.41716999600004, 23.065157063000072], [91.41657242200006, 23.064093273000026], [91.42233756600007, 23.06302449700007], [91.42326659300005, 23.058670849000066], [91.43335530400003, 23.051054758000078], [91.43282613800005, 23.04647042600004], [91.43002024800006, 23.044089495000037], [91.43585212400006, 23.044000522000033], [91.44131898600006, 23.045836112000075], [91.43874050600004, 23.05551311200003], [91.44426306400004, 23.063320114000078], [91.44892608300006, 23.062923510000076], [91.45689610200003, 23.06826174500003], [91.46387575300008, 23.06754584400005], [91.46561435100006, 23.074301569000056], [91.47056480900005, 23.070858076000036], [91.47618362700007, 23.071217733000026], [91.48083137800006, 23.073370545000046], [91.48368212800005, 23.072420344000022], [91.48261658500007, 23.076447031000043], [91.47463766100003, 23.075572864000037], [91.47322110100004, 23.077422832000025], [91.47431606200007, 23.085522764000075], [91.47308036500004, 23.08880589900008], [91.47523580500007, 23.09387775400006], [91.47194156300009, 23.09555559200004], [91.47273723300003, 23.09757231800006], [91.48766515900007, 23.098306112000046], [91.49141586700006, 23.107311586000037], [91.49750035700004, 23.104568292000067], [91.49965555900008, 23.106270536000068], [91.51168667700006, 23.10853326800003]]]}}, {"type": "Feature", "properties": {"shapeName": "Parshuram", "shapeISO": "", "shapeID": "5055444B3242961930205", "shapeGroup": "BGD", "shapeType": "ADM3"}, "geometry": {"type": "Polygon", "coordinates": [[[91.38459421500005, 23.17531014800005], [91.38515838600006, 23.175176016000023], [91.39037995600006, 23.176022997000075], [91.38863839400005, 23.17930719800006], [91.39121648800005, 23.181228458000078], [91.40103027100008, 23.182830298000056], [91.40206275800006, 23.181601296000053], [91.40026779800007, 23.177504016000057], [91.40160097100005, 23.175193086000036], [91.40014765900008, 23.172177094000062], [91.40195877000008, 23.170389123000064], [91.40255977000004, 23.16320546000003], [91.40400308300008, 23.16760954600005], [91.41612448900008, 23.169925947000024], [91.41779413800003, 23.172177806000036], [91.43460880800006, 23.172962509000058], [91.44073281400006, 23.175690503000055], [91.44310956000004, 23.17380715200005], [91.44373264300003, 23.165415280000047], [91.44593642200005, 23.162225629000034], [91.44029391400005, 23.156864722000023], [91.44062838600007, 23.153720445000033], [91.44447770900007, 23.14916105700007], [91.45257002400007, 23.14628526300004], [91.45380127100003, 23.143180677000032], [91.45062895500007, 23.140159006000033], [91.45268348900004, 23.13919969500006], [91.45597411900008, 23.140062873000034], [91.45908632500004, 23.13836668700003], [91.46146115800008, 23.13470054900006], [91.46016174400006, 23.132164061000026], [91.46177133300006, 23.13020741100007], [91.46098509800004, 23.129180047000034], [91.47527247800008, 23.13101471400006], [91.47896870500006, 23.135978899000065], [91.48223297000004, 23.135215579000032], [91.48311473900009, 23.13791892100005], [91.48126934900006, 23.139502633000063], [91.48124460400004, 23.14269428800003], [91.48500067600008, 23.147056031000034], [91.48589452500005, 23.153664116000073], [91.49088656900005, 23.157762208000065], [91.49476863100006, 23.162107699000046], [91.49816772700007, 23.17178403500003], [91.49228462200006, 23.172093163000056], [91.49166661800007, 23.177711508000073], [91.49729605000005, 23.17993530700005], [91.50666872900007, 23.180083436000075], [91.50747077300008, 23.183837228000073], [91.50102994800005, 23.185418171000038], [91.50421046600007, 23.189444123000044], [91.50314409900005, 23.19223030300003], [91.49213214000008, 23.18895740100004], [91.48843837500004, 23.192291158000046], [91.48487143300008, 23.18833873400007], [91.47069180800008, 23.196559359000048], [91.48237335500005, 23.19856565300006], [91.48436741000006, 23.209334583000043], [91.47533928200005, 23.22048956200007], [91.45856415700007, 23.213448033000077], [91.45824381800008, 23.21575401700005], [91.45050152400006, 23.219598160000032], [91.45320067000006, 23.223292289000028], [91.47024494100003, 23.22777785200003], [91.45783641600008, 23.246129504000066], [91.44854260500006, 23.243887597000025], [91.45443902700003, 23.25757556800005], [91.45414425200005, 23.260511757000074], [91.44857287900004, 23.259991926000055], [91.43128651400008, 23.262581531000023], [91.42482798600008, 23.258185223000055], [91.42467981100003, 23.259816774000058], [91.42113196200006, 23.261927934000028], [91.41825171600004, 23.25561083200006], [91.41863622100004, 23.258497928000054], [91.41533494400005, 23.263432846000057], [91.41737545900008, 23.26462446000005], [91.41586710800004, 23.26956550700004], [91.41808539000004, 23.269726727000034], [91.41955571100004, 23.273386533000064], [91.41774814200005, 23.27632851100003], [91.41651746400004, 23.275752342000033], [91.41767467700004, 23.277360436000038], [91.41553203900008, 23.279440478000026], [91.41559979700008, 23.28290058400006], [91.41370188300004, 23.281490606000034], [91.40883521000006, 23.285321483000075], [91.41123403300008, 23.25581464000004], [91.40548256500006, 23.256728727000052], [91.40032367600008, 23.265847724000025], [91.39751242800008, 23.265259078000042], [91.39723444200007, 23.25637380300003], [91.40058592500009, 23.256234507000045], [91.40867344700007, 23.247756371000037], [91.39248596000004, 23.24603207100006], [91.39704439300004, 23.241317870000046], [91.39834372100006, 23.236019673000044], [91.40018699700005, 23.235199410000064], [91.40083360000006, 23.229247115000078], [91.38640017700004, 23.22768479000007], [91.39208405800008, 23.220157922000055], [91.38822628100007, 23.21481807400005], [91.38070106400005, 23.208566105000045], [91.38767996900003, 23.208022291000077], [91.38547617300009, 23.191983037000057], [91.38091868300006, 23.191736198000058], [91.37986695500007, 23.184612807000065], [91.38295971100007, 23.184628928000052], [91.38183445400006, 23.175151603000074], [91.38362273000007, 23.175257935000047], [91.38459421500005, 23.17531014800005]]]}}, {"type": "Feature", "properties": {"shapeName": "Sonagazi", "shapeISO": "", "shapeID": "5055444B14188015816574", "shapeGroup": "BGD", "shapeType": "ADM3"}, "geometry": {"type": "MultiPolygon", "coordinates": [[[[91.45030613400007, 22.777722505000042], [91.45122576200004, 22.763140019000048], [91.45436305500004, 22.75689226800006], [91.45382728300007, 22.767397394000056], [91.45030613400007, 22.777722505000042]]], [[[91.37947474000003, 22.779363851000028], [91.39166981900007, 22.775140818000068], [91.39469994200005, 22.776619867000022], [91.39241210400007, 22.779722546000073], [91.38818276700005, 22.781981810000048], [91.38155888500006, 22.784476795000046], [91.37704081100009, 22.78450880200006], [91.37947474000003, 22.779363851000028]]], [[[91.32813912200004, 22.797511556000075], [91.32811281600004, 22.806294867000076], [91.33109687100006, 22.817499603000044], [91.31666954300005, 22.821774769000058], [91.31248864600008, 22.819512017000022], [91.31135318800006, 22.816103011000052], [91.31345053200005, 22.80900798700003], [91.32310062000005, 22.80316178100003], [91.32813912200004, 22.797511556000075]]], [[[91.32977483200006, 22.847077463000062], [91.32286954500006, 22.84390492400007], [91.32269821800008, 22.842185751000045], [91.32571390800007, 22.84208897700006], [91.33101412800005, 22.845058055000038], [91.32977483200006, 22.847077463000062]]], [[[91.46554443000008, 22.84831722200005], [91.45995099400005, 22.84564614800007], [91.45395879700004, 22.83494766900003], [91.45214619300003, 22.828153763000046], [91.44895285000007, 22.826032172000055], [91.44187135900006, 22.82661687600006], [91.43970112600005, 22.828768554000078], [91.43829510500007, 22.834803150000027], [91.43144224900004, 22.837732466000034], [91.43056545400003, 22.82784721300004], [91.42612734900007, 22.81756371000006], [91.42280480200009, 22.81408061700006], [91.41730142900008, 22.812839240000073], [91.42201959100004, 22.80548485500003], [91.44733292500007, 22.784520201000078], [91.44331351900007, 22.79444129500007], [91.44307590700004, 22.802231624000058], [91.44569316400003, 22.809253500000068], [91.46057282000004, 22.826421104000076], [91.46568119600005, 22.844143919000032], [91.46554443000008, 22.84831722200005]]], [[[91.33200322500005, 22.820655491000025], [91.33625471700003, 22.84028027200003], [91.33294159100006, 22.841598485000077], [91.32603376500003, 22.83914696100004], [91.32139257900008, 22.839113852000025], [91.31855858100005, 22.842005010000037], [91.32013450600004, 22.84500299900003], [91.32891707900006, 22.84831241200004], [91.32646443900006, 22.84895212300006], [91.32009931200008, 22.84545827900007], [91.31203248800006, 22.845486014000073], [91.30966835700008, 22.84087091300006], [91.31883315000005, 22.836750051000024], [91.32519262900007, 22.837066441000047], [91.32522545800003, 22.826998294000077], [91.32999554400004, 22.821223779000036], [91.33200322500005, 22.820655491000025]]], [[[91.42412495700006, 22.757389483000054], [91.43015786200004, 22.766556192000053], [91.43028784500007, 22.779029068000057], [91.42160743000005, 22.784411703000046], [91.41959024800008, 22.78744064600005], [91.41938429000004, 22.789951630000076], [91.42347663000004, 22.796869075000075], [91.41344125200004, 22.798463835000064], [91.40601663400008, 22.805841873000077], [91.40532404800007, 22.808424873000035], [91.40707925700008, 22.81344321800003], [91.41284498100003, 22.81940258800006], [91.42314405400003, 22.82440089800008], [91.42363956700007, 22.834863146000032], [91.42832835700005, 22.839480972000047], [91.43536613000003, 22.839417686000047], [91.44120001200008, 22.835207022000077], [91.44221698000007, 22.82896086200003], [91.44587479300009, 22.82749392100004], [91.44935923500003, 22.827892388000066], [91.45623634700007, 22.845465105000073], [91.46533278100009, 22.85488007400005], [91.46625605000008, 22.86128626900006], [91.47219969600008, 22.868121916000064], [91.47447550200008, 22.87563203600007], [91.47099223300006, 22.87896646100006], [91.46241159600004, 22.877524911000023], [91.46114001900008, 22.890879083000073], [91.46540453300008, 22.895853475000024], [91.46010157000006, 22.898877626000058], [91.45870767100007, 22.90196624600003], [91.47358263300004, 22.901770284000065], [91.47472061900004, 22.902487329000053], [91.46846844400005, 22.904277600000057], [91.46972932600005, 22.91373833600005], [91.46783328900005, 22.913534595000044], [91.46862701300006, 22.914868443000046], [91.46733450500005, 22.91576660900006], [91.47001480900008, 22.918342904000042], [91.46543754900006, 22.92023949600008], [91.46488625400008, 22.921503920000077], [91.46648562800004, 22.922500124000067], [91.46302669000005, 22.92323084700007], [91.46156886000006, 22.927758355000037], [91.45754149700008, 22.932106254000075], [91.45394958200006, 22.93285381900006], [91.45597259200008, 22.930545211000037], [91.45564832300005, 22.928772356000025], [91.45035885800007, 22.929425321000053], [91.44008259100008, 22.93844887000006], [91.43485911900007, 22.93430551600005], [91.43685357000004, 22.925790420000055], [91.43218887500007, 22.92402172800007], [91.42868330100004, 22.91841191900005], [91.42871404400006, 22.913962427000058], [91.42640303400003, 22.916316752000057], [91.42541038300004, 22.913228935000063], [91.42270966900008, 22.91438944600003], [91.41939515400009, 22.913782368000057], [91.41901836100004, 22.909313359000066], [91.41661161400003, 22.915833140000075], [91.41741399500006, 22.919626622000067], [91.41627977600007, 22.91984560000003], [91.41626744000007, 22.917837853000037], [91.41542565700007, 22.920806621000054], [91.41091022900008, 22.920347805000063], [91.41071023300003, 22.923573332000046], [91.40443842600007, 22.92299501900004], [91.40622085600006, 22.91980121200004], [91.40112021100003, 22.917005257000028], [91.39821629700003, 22.920959088000075], [91.39482060500006, 22.919335016000048], [91.39566511100008, 22.923608638000076], [91.39057520000006, 22.929619890000026], [91.39406658400009, 22.936224199000037], [91.39246751200005, 22.944282112000053], [91.38680574200004, 22.942650668000056], [91.38421782200004, 22.943367015000035], [91.38251007500008, 22.94877159600003], [91.38272041500005, 22.95495424300003], [91.38115593400005, 22.95647673900004], [91.37159725600009, 22.95705305000007], [91.36706555300003, 22.959574218000057], [91.36706397200004, 22.95250292000003], [91.36444145400009, 22.949981923000053], [91.36609793400004, 22.943100126000047], [91.36454850900003, 22.94236156000005], [91.35867470300008, 22.94338626900003], [91.35498464500006, 22.948818283000037], [91.35215302400007, 22.94632538700006], [91.34827826300005, 22.948284399000045], [91.34736910800007, 22.94695541300007], [91.35006845400005, 22.94644418300004], [91.34943471900004, 22.944001384000046], [91.35181297500009, 22.943692686000077], [91.35018688300005, 22.940503053000043], [91.35391623200007, 22.94024887200004], [91.35426512400005, 22.93905030600007], [91.34535398000008, 22.93714360900003], [91.34534377100005, 22.939749384000038], [91.34358233200004, 22.93869629200003], [91.34174987200004, 22.939710379000076], [91.34270659600008, 22.937159819000044], [91.34070541700004, 22.93403647200006], [91.33389738200003, 22.935739892000072], [91.33125315100006, 22.932523597000056], [91.33011844600009, 22.928976800000044], [91.33633493100007, 22.925521268000068], [91.32799707600003, 22.91172780200003], [91.32793925900006, 22.910046091000027], [91.33013187500006, 22.90875142300007], [91.33191236800008, 22.909997023000074], [91.33861841200007, 22.909203424000054], [91.34111798900005, 22.91329467500003], [91.34391425900009, 22.90568087200006], [91.35085746900006, 22.902040851000038], [91.35286001700007, 22.897161281000024], [91.35099149200005, 22.894286974000067], [91.34508933900008, 22.89761730600003], [91.34357514100003, 22.896741036000037], [91.34449182300006, 22.891826141000024], [91.34289273100006, 22.887331044000064], [91.34458042000006, 22.881215161000057], [91.33599157600008, 22.884822428000064], [91.32846079400008, 22.88213361000004], [91.33527570500007, 22.875352812000074], [91.34305419100008, 22.877300305000063], [91.33795773800006, 22.86848575600004], [91.33717948000003, 22.862848463000034], [91.34569928100007, 22.86325701800007], [91.35052610200006, 22.86633721000004], [91.35240962000006, 22.86566188100005], [91.34781057100008, 22.856896477000078], [91.35175153800003, 22.85394122500003], [91.35193434500007, 22.85197805000007], [91.34759686400008, 22.851962900000046], [91.34169341300009, 22.859456789000035], [91.33930640900007, 22.860280742000043], [91.33677259000007, 22.844848925000065], [91.33916034000003, 22.840829391000057], [91.33599267900007, 22.82123795900003], [91.33816064300004, 22.820810223000024], [91.33538948100005, 22.818893568000078], [91.33186615000005, 22.806622013000037], [91.33247214200009, 22.79736871600005], [91.33475816900005, 22.793908395000074], [91.34453103000004, 22.78905203900007], [91.35514020500005, 22.794848005000063], [91.36555261800004, 22.797245513000064], [91.36785824200007, 22.801753576000067], [91.37327377000008, 22.796922360000053], [91.37681652000003, 22.785332362000077], [91.38199666800006, 22.785691748000033], [91.39262823000007, 22.78194306900008], [91.40718534100006, 22.765401062000024], [91.41712536800009, 22.762635189000036], [91.42412495700006, 22.757389483000054]]]]}}]}